ORBCOMM FM24            
1 25478U 98053D   26008.06095711  .00001128  00000+0  41015-3 0  9991
2 25478  45.0095  17.2601 0002898 230.0863 129.9731 14.38739024426945
ORBCOMM FM25            
1 25479U 98053E   26008.03657988  .00001180  00000+0  42714-3 0  9994
2 25479  45.0085  15.6790 0005138 219.2076 140.8401 14.38707169427235
ORBCOMM FM26            
1 25480U 98053F   26008.11879063  .00000914  00000+0  34829-3 0  9997
2 25480  45.0084  13.2900 0007326 227.0653 132.9581 14.37666732427131
ORBCOMM FM27            
1 25481U 98053G   26008.08900058  .00001256  00000+0  45116-3 0  9994
2 25481  45.0068  15.5534 0002450 262.5127  97.5444 14.38745100427171
ORBCOMM FM28            
1 25482U 98053H   26008.17362550  .00000996  00000+0  36654-3 0  9991
2 25482  45.0062 312.4059 0005381 267.2796  92.7437 14.38863514427873
ORBCOMM FM30            
1 25980U 99065A   26008.01586031  .00000737  00000+0  28892-3 0  9991
2 25980  45.0295 199.8281 0005855 318.2028  41.8372 14.37825479363924
ORBCOMM FM31            
1 25981U 99065B   26007.99881794  .00000800  00000+0  31034-3 0  9995
2 25981  45.0209 193.3578 0003422 348.3645  11.7124 14.37751281363475
ORBCOMM FM32            
1 25982U 99065C   26007.97182276  .00000717  00000+0  28826-3 0  9995
2 25982  45.0137 211.4326 0005942 341.9354  18.1282 14.36812712364040
